     2.10           N: GPS NAV DATA                         RINEX VERSION / TYPE
teqc  2009Mar23                         20140503 00:19:18UTCPGM / RUN BY / DATE
    16                                                      LEAP SECONDS
Linux 2.4.20-8|Pentium IV|gcc -static|Linux|486/DX+         COMMENT
teqc  2009Mar23                         20140502 01:05:03UTCCOMMENT
                                                            END OF HEADER
10 14  5  2  4  0  0.0-1.238542608917D-04-1.477928890381D-12 0.000000000000D+00
    8.100000000000D+01-7.656250000000D+00 4.962706716655D-09-8.048117709550D-01
   -3.930181264877D-07 1.352679461706D-02 8.899718523026D-06 5.153728788376D+03
    4.464000000000D+05 7.264316082001D-08-1.399615024612D-01 3.185123205185D-07
    9.425143084641D-01 1.976875000000D+02 8.635387052132D-01-8.301774373654D-09
   -6.693135938835D-10 1.000000000000D+00 1.790000000000D+03 0.000000000000D+00
    2.800000000000D+00 0.000000000000D+00-2.793967723846D-09 8.100000000000D+01
    4.441800000000D+05 4.000000000000D+00
25 14  5  2  4  0  0.0 2.306420356035D-05 7.958078640513D-13 0.000000000000D+00
    3.300000000000D+01-1.159687500000D+02 4.177674016892D-09 4.429574611505D-01
   -6.128102540970D-06 3.553225309588D-03 6.822869181633D-06 5.153621221542D+03
    4.464000000000D+05 4.097819328308D-08 2.985143221734D+00 8.940696716309D-08
    9.763539355290D-01 2.592500000000D+02 6.544032281669D-01-8.025334287386D-09
   -1.689356082747D-10 1.000000000000D+00 1.790000000000D+03 0.000000000000D+00
    2.000000000000D+00 0.000000000000D+00 5.122274160385D-09 3.300000000000D+01
    4.455900000000D+05 4.000000000000D+00
 2 14  5  2  6  0  0.0 4.929699935019D-04 2.160049916711D-12 0.000000000000D+00
    8.300000000000D+01 8.531250000000D+00 5.543088034723D-09-2.349227301878D+00
    4.451721906662D-07 1.349856844172D-02 5.017966032028D-06 5.153590429306D+03
    4.536000000000D+05 2.402812242508D-07-1.225064414359D+00-1.769512891769D-07
    9.389668052678D-01 2.691875000000D+02-2.433033413813D+00-8.401421381495D-09
    2.585821995580D-10 1.000000000000D+00 1.790000000000D+03 0.000000000000D+00
    2.000000000000D+00 0.000000000000D+00-2.048909664154D-08 8.300000000000D+01
    4.490700000000D+05 4.000000000000D+00
 4 14  5  2  6  0  0.0 6.861519068480D-06 0.000000000000D+00 0.000000000000D+00
    9.600000000000D+01 8.656250000000D+00 5.664164506616D-09 1.027833039657D+00
    6.053596735001D-07 1.055505278055D-02 5.666166543961D-06 5.153719221115D+03
    4.536000000000D+05-1.676380634308D-07-1.209012936333D+00 1.359730958939D-07
    9.379889878978D-01 2.628437500000D+02 1.092067390887D+00-8.718934607195D-09
    9.000374901741D-11 1.000000000000D+00 1.790000000000D+03 0.000000000000D+00
    2.000000000000D+00 0.000000000000D+00-6.519258022308D-09 9.600000000000D+01
    4.490700000000D+05 4.000000000000D+00
 5 14  5  2  6  0  0.0-3.754659555852D-04 2.387423592154D-12 0.000000000000D+00
    7.100000000000D+01-1.146875000000D+01 4.868774232561D-09-1.167617093081D-02
   -6.947666406631D-07 3.563122474588D-03 8.793547749519D-06 5.153585124969D+03
    4.536000000000D+05-1.676380634308D-08-1.574271468211D-01 5.401670932770D-08
    9.477004203493D-01 2.005000000000D+02 3.210756263400D-01-8.158554122241D-09
   -6.460983411607D-10 1.000000000000D+00 1.790000000000D+03 0.000000000000D+00
    2.000000000000D+00 0.000000000000D+00-1.024454832077D-08 7.100000000000D+01
    4.490700000000D+05 4.000000000000D+00
10 14  5  2  6  0  0.0-1.238654367626D-04-1.477928890381D-12 0.000000000000D+00
    9.300000000000D+01-1.475000000000D+01 5.125927801182D-09 2.453373949673D-01
   -5.271285772324D-07 1.352585863788D-02 8.812174201012D-06 5.153727027893D+03
    4.536000000000D+05-7.823109626770D-08-1.400222998737D-01 1.732259988785D-07
    9.425091048645D-01 1.983125000000D+02 8.635410619743D-01-8.438922943585D-09
   -6.450268679581D-10 1.000000000000D+00 1.790000000000D+03 0.000000000000D+00
    2.800000000000D+00 0.000000000000D+00-2.793967723846D-09 9.300000000000D+01
    4.490700000000D+05 4.000000000000D+00
12 14  5  2  6  0  0.0 2.022664994001D-04 2.387423592154D-12 0.000000000000D+00
    5.100000000000D+01-1.077500000000D+02 3.758370836945D-09 2.264746010825D+00
   -5.574896931648D-06 5.119769833982D-03 7.569789886475D-06 5.153637670517D+03
    4.536000000000D+05-1.415610313416D-07 3.027201177320D+00 1.862645149231D-08
    9.876545490563D-01 2.448750000000D+02 4.105305023918D-01-7.756394513536D-09
   -1.000041655749D-10 1.000000000000D+00 1.790000000000D+03 0.000000000000D+00
    2.000000000000D+00 0.000000000000D+00-1.210719347000D-08 5.100000000000D+01
    4.490700000000D+05 4.000000000000D+00
17 14  5  2  6  0  0.0-8.978042751551D-05-3.183231456205D-12 0.000000000000D+00
    9.000000000000D+01-1.178125000000D+01 4.349466887040D-09-8.418938286687D-01
   -4.172325134277D-07 9.277707431465D-03 1.006759703159D-05 5.153587617874D+03
    4.536000000000D+05 1.862645149231D-09-2.205713925021D+00 1.713633537292D-07
    9.683872113629D-01 1.925937500000D+02-2.101007949517D+00-7.890685821594D-09
    5.003779856087D-10 1.000000000000D+00 1.790000000000D+03 0.000000000000D+00
    2.000000000000D+00 0.000000000000D+00-1.024454832077D-08 9.000000000000D+01
    4.490700000000D+05 4.000000000000D+00
23 14  5  2  6  0  0.0-1.711538061500D-05-3.183231456205D-12 0.000000000000D+00
    1.100000000000D+02 1.024687500000D+02 4.359110145863D-09-1.930522390692D+00
    5.165114998817D-06 9.216979844496D-03 9.557232260704D-06 5.153565471649D+03
    4.536000000000D+05-4.284083843231D-08 9.029403131684D-01-1.043081283569D-07
    9.522255536622D-01 1.906250000000D+02-2.790425655240D+00-7.876756669960D-09
    9.428964182777D-11 1.000000000000D+00 1.790000000000D+03 0.000000000000D+00
    2.000000000000D+00 0.000000000000D+00-2.002343535423D-08 1.100000000000D+02
    4.490700000000D+05 4.000000000000D+00
25 14  5  2  6  0  0.0 2.306979149580D-05 7.958078640513D-13 0.000000000000D+00
    3.400000000000D+01-1.120937500000D+02 4.057311860468D-09 1.492974316373D+00
   -5.917623639107D-06 3.554078983143D-03 6.921589374542D-06 5.153623201370D+03
    4.536000000000D+05-4.284083843231D-08 2.985085481821D+00 8.940696716309D-08
    9.763526657161D-01 2.513125000000D+02 6.545954570654D-01-8.001404719195D-09
   -1.621496113250D-10 1.000000000000D+00 1.790000000000D+03 0.000000000000D+00
    2.000000000000D+00 0.000000000000D+00 5.122274160385D-09 3.400000000000D+01
    4.490700000000D+05 4.000000000000D+00
31 14  5  2  6  0  0.0 3.342558629811D-04 0.000000000000D+00 0.000000000000D+00
    1.260000000000D+02 3.284375000000D+01 4.271963658719D-09 2.562208980734D+00
    1.773238182068D-06 8.012559032068D-03 1.560896635056D-06 5.153538789749D+03
    4.536000000000D+05-1.862645149231D-09 1.970593137377D+00 2.235174179077D-08
    9.782797472211D-01 3.609375000000D+02-6.392769463480D-01-8.141053393266D-09
    3.643008888800D-11 1.000000000000D+00 1.790000000000D+03 0.000000000000D+00
    2.000000000000D+00 0.000000000000D+00-1.303851604462D-08 1.260000000000D+02
    4.491000000000D+05 4.000000000000D+00
20 14  5  2  5 59 44.0 1.853047870100D-04 3.751665644813D-12 0.000000000000D+00
    9.000000000000D+00-1.937500000000D+01 5.438440818604D-09 1.296086107143D+00
   -1.143664121628D-06 5.795576958917D-03 8.326023817062D-06 5.153801521301D+03
    4.535840000000D+05-1.341104507446D-07-2.152373493167D-01-7.264316082001D-08
    9.272087328683D-01 2.019375000000D+02 1.334520359055D+00-8.436422839446D-09
   -5.893102614235D-10 1.000000000000D+00 1.790000000000D+03 0.000000000000D+00
    2.000000000000D+00 0.000000000000D+00-8.381903171539D-09 9.000000000000D+00
    4.484700000000D+05 4.000000000000D+00
24 14  5  2  6  0  0.0-2.770405262709D-05-6.821210263297D-13 0.000000000000D+00
    5.200000000000D+01 2.612500000000D+01 4.689123892260D-09-2.760006519361D+00
    1.430511474609D-06 2.062967047095D-03 1.419335603714D-06 5.153735040665D+03
    4.536000000000D+05 6.332993507385D-08 1.930293542028D+00 4.284083843231D-08
    9.567055135276D-01 3.511562500000D+02 3.368404031434D-01-8.419279268204D-09
    1.471489864888D-10 1.000000000000D+00 1.790000000000D+03 0.000000000000D+00
    2.000000000000D+00 0.000000000000D+00 2.793967723846D-09 5.200000000000D+01
    4.493100000000D+05 4.000000000000D+00
29 14  5  2  6  0  0.0 5.295746959746D-04 2.728484105319D-12 0.000000000000D+00
    4.000000000000D+01-1.006250000000D+01 4.290893018632D-09 1.949919620882D+00
   -6.761401891708D-07 1.633466454223D-03 1.088902354240D-05 5.153717376709D+03
    4.536000000000D+05 1.303851604462D-08-2.196676741272D+00 1.862645149231D-08
    9.691090136803D-01 1.774375000000D+02-8.931048735400D-01-7.757465986739D-09
    5.289506043444D-10 1.000000000000D+00 1.790000000000D+03 0.000000000000D+00
    2.000000000000D+00 0.000000000000D+00-9.778887033463D-09 4.000000000000D+01
    4.500300000000D+05 4.000000000000D+00
13 14  5  2  6  0  0.0 3.956723958254D-06-3.751665644813D-12 0.000000000000D+00
    6.000000000000D+00 1.023437500000D+02 3.926949287486D-09-1.258943429030D+00
    5.280598998070D-06 5.385237629525D-03 8.895993232727D-06 5.153600952148D+03
    4.536000000000D+05-6.891787052155D-08 9.995150813122D-01 3.352761268616D-08
    9.779349783915D-01 2.184062500000D+02 2.242743611731D+00-7.817825643818D-09
    1.239337337660D-10 1.000000000000D+00 1.790000000000D+03 0.000000000000D+00
    2.000000000000D+00 0.000000000000D+00-1.117587089539D-08 6.000000000000D+00
    4.511100000000D+05 4.000000000000D+00
